#aV2020  3  9  0  0  0.00000000     288 DD+AD WGS84 FIT  NGA
## 2096  86400.00000000   300.00000000 58917 0.0000000000000
+   31     1  2  3  4  5  6  7  8  9 10 11 12 13 14 15 16 17
+         19 20 21 22 23 24 25 26 27 28 29 30 31 32  0  0  0
+          0  0  0  0  0  0  0  0  0  0  0  0  0  0  0  0  0
+          0  0  0  0  0  0  0  0  0  0  0  0  0  0  0  0  0
+          0  0  0  0  0  0  0  0  0  0  0  0  0  0  0  0  0
++         2  2  2  2  2  2  2  2  2  2  2  2  2  2  2  2  2
++         2  2  2  2  2  2  2  2  2  2  2  2  2  2  0  0  0
++         0  0  0  0  0  0  0  0  0  0  0  0  0  0  0  0  0
++         0  0  0  0  0  0  0  0  0  0  0  0  0  0  0  0  0
++         0  0  0  0  0  0  0  0  0  0  0  0  0  0  0  0  0
%c cc cc ccc ccc cccc cccc cccc cccc ccccc ccccc ccccc ccccc
%c cc cc ccc ccc cccc cccc cccc cccc ccccc ccccc ccccc ccccc
%f  0.0000000  0.000000000  0.00000000000  0.000000000000000
%f  0.0000000  0.000000000  0.00000000000  0.000000000000000
%i    0    0    0    0      0      0      0      0         0
%i    0    0    0    0      0      0      0      0         0
/*      NGA, ST. LOUIS,MO.                                  
/*   EPHEMERIS COMPUTED FROM 2 DAYS OF DATA                 
/*   EPOCHA v5 SMOOTHER                                     
/*   G1762 IERS2010 SATAF SATAPC                            
*  2020  3  9 13  5  0.00000000
P  1 -18920.749454  -9643.258026  15949.900623   -320.189738                    
V  1  -9865.841303 -17988.325266 -21965.771392     -0.124066                    
P  2  13161.055671  22786.996805   4516.182774   -418.798207                    
V  2  -5139.766234  -2305.058457  30962.156521     -0.067482                    
P  3 -17052.175427   2828.521441  20081.426150   -113.501604                    
V  3  10662.745930 -23344.060947  12403.112086     -0.096625                    
P  4 -26512.766575   -635.199658   1710.430046    -59.817891                    
V  4   2100.694911  -2847.739683  31632.012990     -0.053188                    
P  5   6326.520608  17817.890575 -18707.474317     -8.833647                    
V  5 -11541.959892  20623.690022  16046.360429     -0.006080                    
P  6   3994.362033  22601.726382  13387.065336   -226.980694                    
V  6 -10745.632892 -13155.360253  25561.592681     -0.087169                    
P  7 -12747.538827   8351.385193 -21456.681664   -231.864349                    
V  7 -15186.307177 -23495.586858   -594.176045     -0.085251                    
P  8 -22631.113837  -6895.707048 -12296.452397    -26.491377                    
V  8  15377.392800  -2969.342508 -26336.494995     -0.013508                    
P  9 -23993.129834   7689.867554  -8490.704552   -172.752722                    
V  9 -10878.967528  -2053.943958  29048.220634     -0.082330                    
P 10  11165.436792 -23932.144024   1214.845922   -271.519587                    
V 10   3225.633259      4.290643 -31952.682149     -0.126872                    
P 11 -23260.753158 -12321.673461   1497.900084   -338.979527                    
V 11    180.166510  -5254.490148 -30748.768877      0.108144                    
P 12  15962.216323    758.166965  20950.656987    142.648722                    
V 12 -13308.101547  23647.666948   9346.785902     -0.042322                    
P 13  15833.977078  12956.191739 -17104.773524     -7.091849                    
V 13 -21487.357998    -36.253498 -19979.655923      0.028412                    
P 14  -1082.006768 -15383.137457  21967.220552    -27.453070                    
V 14  27079.162377    664.947665   1644.380407      0.024625                    
P 15  23590.064640   5200.736953 -11766.909798   -246.185880                    
V 15 -13794.519808   5038.178513 -25734.101900      0.026169                    
P 16  -4538.994745 -17465.945608 -19536.508260   -133.085595                    
V 16  14022.721507 -20074.912441  15290.393991     -0.042495                    
P 17 -10276.011481  13717.136098  20700.459487    229.158910                    
V 17 -25280.751777   -804.909181 -12317.700644      0.062937                    
P 19  -1756.902188  14522.781550  21874.933527   -188.141691                    
V 19 -28387.374673  -1484.576381  -1277.444682      0.051391                    
P 20  14938.712386 -19289.590346 -10321.246209    527.872908                    
V 20  -1195.075595  13486.011465 -27360.310008     -0.000170                    
P 21  10587.478653 -10857.751328 -21030.350760    -30.212712                    
V 21  17295.288965  22788.573852  -2696.904024      0.052296                    
P 22 -14646.641382  -6414.327291  21429.791446   -785.398943                    
V 22  10141.063161 -24829.256583   -382.698233     -0.001597                    
P 23 -26724.301978    868.038632   1617.236317   -130.930873                    
V 23   1372.161746  -3116.966127  31046.640471      0.026597                    
P 24  20256.939631  10345.146191  13810.663444    -10.115744                    
V 24   8511.487237  15818.031582 -23632.089030     -0.005136                    
P 25  17887.736751 -11729.140039  15330.496928     -9.880092                    
V 25  -7216.748058  18759.804239  22698.274367      0.018015                    
P 26   1727.692046 -23633.763185 -11797.331783    164.079172                    
V 26   8988.114758 -12398.093240  26441.975620      0.075861                    
P 27 -13361.965139 -12434.218988 -19541.368999   -233.527787                    
V 27  24298.940694  -2181.972157 -14999.668679     -0.108338                    
P 28 -12022.921718  23574.667788   3602.197734    734.082958                    
V 28  -3784.596951   2129.383542 -31626.685476     -0.026973                    
P 29  25170.924247  -4447.084570  -7284.489174    -52.267979                    
V 29   9145.182564   2019.175453  30498.665580     -0.092666                    
P 30  -4468.029768  18604.354854 -18307.591617   -171.380040                    
V 30 -13741.338271 -19108.062629 -16238.977311     -0.087891                    
P 31  -5373.024506 -23379.366331  10843.518843    -28.298539                    
V 31   9768.723896  10428.017420  27677.610783     -0.025053                    
P 32   8819.612040 -14810.306892  20239.977492    231.945949                    
V 32  25614.536531   -418.395226 -11647.656107      0.092748                    
EOF
